[{"OBJECT_NAME":"STARLINK-32026","OBJECT_ID":"2024-117H","EPOCH":"2026-03-09T22:19:35.263200","MEAN_MOTION":15.30198825,"ECCENTRICITY":0.00010035,"INCLINATION":53.1609,"RA_OF_ASC_NODE":35.9807,"ARG_OF_PERICENTER":86.3664,"MEAN_ANOMALY":273.7451,"EPHEMERIS_TYPE":0,"CLASSIFICATION_TYPE":"U","NORAD_CAT_ID":60098,"ELEMENT_SET_NO":999,"REV_AT_EPOCH":9692,"BSTAR":1.3954079e-5,"MEAN_MOTION_DOT":5.4e-7,"MEAN_MOTION_DDOT":0},{"OBJECT_NAME":"TRANSPORTER-11 OBJECT A","OBJECT_ID":"2024-149A","EPOCH":"2026-03-09T17:54:54.302112","MEAN_MOTION":15.31141332,"ECCENTRICITY":0.00031096,"INCLINATION":97.378,"RA_OF_ASC_NODE":149.0949,"ARG_OF_PERICENTER":191.001,"MEAN_ANOMALY":169.1164,"EPHEMERIS_TYPE":0,"CLASSIFICATION_TYPE":"U","NORAD_CAT_ID":60468,"ELEMENT_SET_NO":999,"REV_AT_EPOCH":8683,"BSTAR":0.00036053677,"MEAN_MOTION_DOT":0.00010774,"MEAN_MOTION_DDOT":0}]
